[{"OBJECT_NAME":"STARLINK-34928","OBJECT_ID":"2025-175X","EPOCH":"2026-03-09T14:47:24.405216","MEAN_MOTION":15.05647683,"ECCENTRICITY":0.0001825,"INCLINATION":97.6015,"RA_OF_ASC_NODE":302.6523,"ARG_OF_PERICENTER":69.2169,"MEAN_ANOMALY":290.9254,"EPHEMERIS_TYPE":0,"CLASSIFICATION_TYPE":"U","NORAD_CAT_ID":65195,"ELEMENT_SET_NO":999,"REV_AT_EPOCH":3263,"BSTAR":0.00016214,"MEAN_MOTION_DOT":2.279e-5,"MEAN_MOTION_DDOT":0},{"OBJECT_NAME":"RAAF M1","OBJECT_ID":"2018-099X","EPOCH":"2026-03-09T15:51:10.230048","MEAN_MOTION":15.07065376,"ECCENTRICITY":0.00134971,"INCLINATION":97.4534,"RA_OF_ASC_NODE":114.8325,"ARG_OF_PERICENTER":21.6261,"MEAN_ANOMALY":338.5534,"EPHEMERIS_TYPE":0,"CLASSIFICATION_TYPE":"U","NORAD_CAT_ID":43779,"ELEMENT_SET_NO":999,"REV_AT_EPOCH":39714,"BSTAR":0.00026511092,"MEAN_MOTION_DOT":3.923e-5,"MEAN_MOTION_DDOT":0}]
